STARLINK-30949          
1 58415U 23180P   26068.02483864 -.00000558  00000+0 -10753-4 0  9993
2 58415  43.0054  56.3333 0001604 281.2638  78.8034 15.27571086127524
NUSAT-45 (UZMASAT-1)    
1 62640U 25009AH  26068.15592621  .00012539  00000+0  48087-3 0  9996
2 62640  97.3985 150.3373 0001172   1.4631 358.6611 15.26632732 63634
